NORAD_CAT_ID,OBJECT_NAME,OBJECT_TYPE,EPOCH,MEAN_MOTION,ECCENTRICITY,INCLINATION,RA_OF_ASC_NODE,ARG_OF_PERICENTER,MEAN_ANOMALY,BSTAR,MEAN_MOTION_DOT,MEAN_MOTION_DDOT,TLE_LINE0,TLE_LINE1,TLE_LINE2,SEMIMAJOR_AXIS,PERIOD,APOGEE,PERIGEE,DECAYED
53722.0,STARLINK-4700,PAYLOAD,2023-06-21 00:11:57,15.08852116,9.56e-05,53.2177,30.3491,118.7179,241.3909,0.00020666,3.004e-05,0.0,0 STARLINK-4700,1 53722U 22107Y   23172.00830232  .00003004  00000-0  20666-3 0  9994,2 53722  53.2177  30.3491 0000956 118.7179 241.3909 15.08852116 44092,6917.843,95.437,540.37,539.047,0.0
53722.0,STARLINK-4700,PAYLOAD,2023-06-21 19:16:35,15.08849742,9.9e-05,53.2183,26.7793,127.4109,232.6973,-1.9461e-05,-5.98e-06,0.0,0 STARLINK-4700,1 53722U 22107Y   23172.80318412 -.00000598  00000-0 -19461-4 0  9992,2 53722  53.2183  26.7793 0000990 127.4109 232.6973 15.08849742 44210,6917.851,95.437,540.4,539.031,0.0
53722.0,STARLINK-4700,PAYLOAD,2023-06-21 20:51:58,15.08851427,8.63e-05,53.2178,26.4846,105.5818,254.5269,-3.2724e-06,-3.4e-06,0.0,0 STARLINK-4700,1 53722U 22107Y   23172.86942309 -.00000340  00000-0 -32724-5 0  9999,2 53722  53.2178  26.4846 0000863 105.5818 254.5269 15.08851427 44677,6917.845,95.437,540.307,539.113,0.0
53722.0,STARLINK-4700,PAYLOAD,2023-06-22 19:07:22,15.08839439,9.12e-05,53.2177,22.3199,104.0508,256.0585,-1.2813e-05,-4.92e-06,0.0,0 STARLINK-4700,1 53722U 22107Y   23173.79678737 -.00000492  00000-0 -12813-4 0  9997,2 53722  53.2177  22.3199 0000912 104.0508 256.0585 15.08839439 44360,6917.882,95.438,540.378,539.116,0.0
53722.0,STARLINK-4700,PAYLOAD,2023-06-22 23:53:31,15.08847135,9.21e-05,53.2178,21.4287,80.6483,279.4614,-4.5723e-06,-3.61e-06,0.0,0 STARLINK-4700,1 53722U 22107Y   23173.99550227 -.00000361  00000-0 -45723-5 0  9994,2 53722  53.2178  21.4287 0000921  80.6483 279.4614 15.08847135 44397,6917.859,95.437,540.361,539.086,0.0
53722.0,STARLINK-4700,PAYLOAD,2023-06-23 18:58:09,15.08841845,9.25e-05,53.2178,17.86,85.332,274.7777,1.7394e-05,-1.1e-07,0.0,0 STARLINK-4700,1 53722U 22107Y   23174.79038560 -.00000011  00000-0  17394-4 0  9997,2 53722  53.2178  17.8600 0000925  85.3320 274.7777 15.08841845 44515,6917.875,95.437,540.38,539.1,0.0
53722.0,STARLINK-4700,PAYLOAD,2023-06-23 23:44:17,15.08850629,9.04e-05,53.2175,16.9685,82.8392,277.2703,8.9196e-05,1.133e-05,0.0,0 STARLINK-4700,1 53722U 22107Y   23174.98909700  .00001133  00000-0  89196-4 0  9995,2 53722  53.2175  16.9685 0000904  82.8392 277.2703 15.08850629 44543,6917.848,95.437,540.338,539.088,0.0
53722.0,STARLINK-4700,PAYLOAD,2023-06-24 06:05:51,15.08837277,0.0001284,53.2176,15.777,83.3119,276.8019,2.8187e-05,1.61e-06,0.0,0 STARLINK-4700,1 53722U 22107Y   23175.25406858  .00000161  00000-0  28187-4 0  9995,2 53722  53.2176  15.7770 0001284  83.3119 276.8019 15.08837277 44584,6917.889,95.438,540.642,538.865,0.0
53722.0,STARLINK-4700,PAYLOAD,2023-06-25 17:04:20,15.08838694,9.32e-05,53.2175,9.2374,91.2231,268.8868,3.1944e-06,-2.37e-06,0.0,0 STARLINK-4700,1 53722U 22107Y   23176.71135256 -.00000237  00000-0  31944-5 0  9999,2 53722  53.2175   9.2374 0000932  91.2231 268.8868 15.08838694 44805,6917.884,95.438,540.394,539.105,0.0
53722.0,STARLINK-4700,PAYLOAD,2023-06-26 05:47:25,15.08847064,0.0001087,53.2182,6.8584,70.3711,289.7398,2.8724e-05,1.69e-06,0.0,0 STARLINK-4700,1 53722U 22107Y   23177.24126714  .00000169  00000-0  28724-4 0  9991,2 53722  53.2182   6.8584 0001087  70.3711 289.7398 15.08847064 44881,6917.859,95.437,540.476,538.972,0.0
53722.0,STARLINK-4700,PAYLOAD,2023-06-26 16:55:09,15.08820434,0.0001206,53.2186,4.7783,98.4421,261.6708,-1.368e-05,-5.05e-06,0.0,0 STARLINK-4700,1 53722U 22107Y   23177.70497218 -.00000505  00000-0 -13680-4 0  9993,2 53722  53.2186   4.7783 0001206  98.4421 261.6708 15.08820434 44959,6917.94,95.439,540.639,538.971,0.0
53722.0,STARLINK-4700,PAYLOAD,2023-06-26 20:05:55,15.08822566,0.0001123,53.217,4.1825,88.692,271.4201,-0.00011572,-2.128e-05,0.0,0 STARLINK-4700,1 53722U 22107Y   23177.83744515 -.00002128  00000-0 -11572-3 0  9992,2 53722  53.2170   4.1825 0001123  88.6920 271.4201 15.08822566 44973,6917.934,95.439,540.576,539.022,0.0
53722.0,STARLINK-4700,PAYLOAD,2023-06-27 05:38:14,15.08830364,0.0001139,53.2172,2.3981,93.3367,266.7756,1.7241e-06,-2.6e-06,0.0,0 STARLINK-4700,1 53722U 22107Y   23178.23488566 -.00000260  00000-0  17241-5 0  9993,2 53722  53.2172   2.3981 0001139  93.3367 266.7756 15.08830364 45038,6917.91,95.438,540.563,538.987,0.0
53722.0,STARLINK-4700,PAYLOAD,2023-06-27 19:56:42,15.0884686,0.0001149,53.2167,359.7239,89.7406,270.3718,0.00047179,7.23e-05,0.0,0 STARLINK-4700,1 53722U 22107Y   23178.83104450  .00007230  00000-0  47179-3 0  9990,2 53722  53.2167 359.7239 0001149  89.7406 270.3718 15.08846860 45128,6917.859,95.437,540.519,538.93,0.0
53722.0,STARLINK-4700,PAYLOAD,2023-06-28 18:12:05,15.08878821,0.0001193,53.2167,355.5597,83.0692,277.0436,0.0010259,0.00016094,0.0,0 STARLINK-4700,1 53722U 22107Y   23179.75839325  .00016094  00000-0  10259-2 0  9994,2 53722  53.2167 355.5597 0001193  83.0692 277.0436 15.08878821 45260,6917.762,95.435,540.452,538.801,0.0
53722.0,STARLINK-4700,PAYLOAD,2023-06-29 18:02:51,15.0884883,0.0001174,53.2165,351.0991,67.0304,293.0812,0.00011373,1.523e-05,0.0,0 STARLINK-4700,1 53722U 22107Y   23180.75199073  .00001523  00000-0  11373-3 0  9995,2 53722  53.2165 351.0991 0001174  67.0304 293.0812 15.08848830 45418,6917.853,95.437,540.531,538.906,0.0
53722.0,STARLINK-4700,PAYLOAD,2023-06-30 14:42:52,15.08844243,0.0001274,53.2168,347.2325,77.3754,282.738,-2.7761e-05,-7.3e-06,0.0,0 STARLINK-4700,1 53722U 22107Y   23181.61311088 -.00000730  00000-0 -27761-4 0  9993,2 53722  53.2168 347.2325 0001274  77.3754 282.7380 15.08844243 45546,6917.867,95.437,540.614,538.851,0.0
53722.0,STARLINK-4700,PAYLOAD,2023-07-01 03:25:58,15.08833619,0.0001635,53.2171,344.852,82.5839,277.5339,-0.00010334,-1.932e-05,0.0,0 STARLINK-4700,1 53722U 22107Y   23182.14303642 -.00001932  00000-0 -10334-3 0  9991,2 53722  53.2171 344.8520 0001635  82.5839 277.5339 15.08833619 45623,6917.9,95.438,540.896,538.634,0.0
53722.0,STARLINK-4700,PAYLOAD,2023-07-01 17:44:26,15.08842555,0.0001132,53.2175,342.1774,74.2482,285.8635,0.00019839,2.871e-05,0.0,0 STARLINK-4700,1 53722U 22107Y   23182.73919385  .00002871  00000-0  19839-3 0  9993,2 53722  53.2175 342.1774 0001132  74.2482 285.8635 15.08842555 45713,6917.873,95.437,540.521,538.954,0.0
53722.0,STARLINK-4700,PAYLOAD,2023-07-02 11:13:41,15.08837631,9.36e-05,53.2176,338.906,71.9525,288.1569,6.4287e-05,7.35e-06,0.0,0 STARLINK-4700,1 53722U 22107Y   23183.46783589  .00000735  00000-0  64287-4 0  9994,2 53722  53.2176 338.9060 0000936  71.9525 288.1569 15.08837631 45821,6917.888,95.438,540.4,539.105,0.0
53722.0,STARLINK-4700,PAYLOAD,2023-07-02 19:10:36,15.08848993,9.93e-05,53.2171,337.4196,81.5887,278.5218,0.00034964,5.282e-05,0.0,0 STARLINK-4700,1 53722U 22107Y   23183.79903319  .00005282  00000-0  34964-3 0  9995,2 53722  53.2171 337.4196 0000993  81.5887 278.5218 15.08848993 45873,6917.853,95.437,540.405,539.031,0.0
53722.0,STARLINK-4700,PAYLOAD,2023-07-03 11:04:27,15.08842762,9.4e-05,53.2167,334.446,83.0237,277.0862,0.00020293,2.944e-05,0.0,0 STARLINK-4700,1 53722U 22107Y   23184.46143482  .00002944  00000-0  20293-3 0  9999,2 53722  53.2167 334.4460 0000940  83.0237 277.0862 15.08842762 45975,6917.872,95.437,540.387,539.087,0.0
53722.0,STARLINK-4700,PAYLOAD,2023-07-04 09:19:51,15.08838797,0.0001152,53.2169,330.2832,81.3687,278.7435,4.3522e-05,4.05e-06,0.0,0 STARLINK-4700,1 53722U 22107Y   23185.38879592  .00000405  00000-0  43522-4 0  9990,2 53722  53.2169 330.2832 0001152  81.3687 278.7435 15.08838797 46114,6917.884,95.438,540.546,538.952,0.0
53722.0,STARLINK-4700,PAYLOAD,2023-07-06 02:39:53,15.08842981,0.0001042,53.2171,322.5516,83.6765,276.4345,0.00011111,1.481e-05,0.0,0 STARLINK-4700,1 53722U 22107Y   23187.11103956  .00001481  00000-0  11111-3 0  9990,2 53722  53.2171 322.5516 0001042  83.6765 276.4345 15.08842981 46373,6917.871,95.437,540.457,539.015,0.0
53722.0,STARLINK-4700,PAYLOAD,2023-07-07 16:49:08,15.08848198,0.0001092,53.2176,315.4136,87.0846,273.0271,0.00019624,2.837e-05,0.0,0 STARLINK-4700,1 53722U 22107Y   23188.70079632  .00002837  00000-0  19624-3 0  9992,2 53722  53.2176 315.4136 0001092  87.0846 273.0271 15.08848198 46614,6917.855,95.437,540.476,538.965,0.0
53722.0,STARLINK-4700,PAYLOAD,2023-07-08 19:50:41,15.08848143,0.0001006,53.2183,310.3596,90.0481,270.0626,7.5649e-05,9.17e-06,0.0,0 STARLINK-4700,1 53722U 22107Y   23189.82687384  .00000917  00000-0  75649-4 0  9992,2 53722  53.2183 310.3596 0001006  90.0481 270.0626 15.08848143 46789,6917.855,95.437,540.416,539.025,0.0
53722.0,STARLINK-4700,PAYLOAD,2023-07-09 00:36:51,15.08840615,5.31e-05,53.2182,309.4679,100.4525,259.6527,-8.0377e-06,-4.15e-06,0.0,0 STARLINK-4700,1 53722U 22107Y   23190.02559894 -.00000415  00000-0 -80377-5 0  9990,2 53722  53.2182 309.4679 0000531 100.4525 259.6527 15.08840615 46819,6917.879,95.438,540.111,539.376,0.0
53722.0,STARLINK-4700,PAYLOAD,2023-07-09 11:44:34,15.08829082,0.0001096,53.2182,307.3857,90.722,269.3898,-6.0642e-05,-1.252e-05,0.0,0 STARLINK-4700,1 53722U 22107Y   23190.48929148 -.00001252  00000-0 -60642-4 0  9995,2 53722  53.2182 307.3857 0001096  90.7220 269.3898 15.08829082 46885,6917.914,95.438,540.537,539.021,0.0
53722.0,STARLINK-4700,PAYLOAD,2023-07-10 16:21:29,15.08848585,9.81e-05,53.2176,302.0345,93.4055,266.7049,0.00013457,1.855e-05,0.0,0 STARLINK-4700,1 53722U 22107Y   23191.68159652  .00001855  00000-0  13457-3 0  9991,2 53722  53.2176 302.0345 0000981  93.4055 266.7049 15.08848585 47069,6917.854,95.437,540.398,539.041,0.0
53722.0,STARLINK-4700,PAYLOAD,2023-07-11 00:18:26,15.08840333,9.93e-05,53.2175,300.5487,99.6182,260.4922,6.5059e-05,7.48e-06,0.0,0 STARLINK-4700,1 53722U 22107Y   23192.01280352  .00000748  00000-0  65059-4 0  9997,2 53722  53.2175 300.5487 0000993  99.6182 260.4922 15.08840333 47110,6917.879,95.438,540.431,539.057,0.0
